AURA                    
1 28376U 04026A   26178.94146843  .00000735  00000+0  15859-3 0  9996
2 28376  98.3421 135.4839 0001170  83.8173 276.3161 14.61344375167780
CAPELLA-11 (ACADIA-1)   
1 57693U 23126A   26178.27946372  .00004581  00000+0  57190-3 0  9990
2 57693  53.0064 141.1070 0002160 101.6387 258.4834 14.84022288153629
CAPELLA-14 (ACADIA-4)   
1 59444U 24066C   26178.95947753  .00013380  00000+0  82611-3 0  9992
2 59444  45.5983 198.3586 0002255 156.9957 203.1030 15.09930877114114
CAPELLA-13 (ACADIA-3)   
1 60419U 24142A   26178.91531427  .00004780  00000+0  54574-3 0  9995
2 60419  53.0076  10.7355 0001322  93.1751 266.9380 14.87652060102004
CAPELLA-15 (ACADIA-5)   
1 60544U 24149CE  26178.91606688  .00003462  00000+0  34353-3 0  9992
2 60544  97.6774 251.5511 0004191  45.4000 314.7560 14.92388037101451
BIOMASS                 
1 63772U 25090A   26176.41992450  .00000661  00000+0  12495-3 0  9993
2 63772  98.0741   3.6181 0001429  94.8977 265.2391 14.67536962 61896
CAPELLA-17 (ACADIA-7)   
1 64583U 25135BH  26178.87134165  .00007504  00000+0  75589-3 0  9993
2 64583  97.7698 292.3351 0004026 329.0341  31.0639 14.91435995 55443
CAPELLA-16 (ACADIA-6)   
1 65318U 25188D   26178.94102655  .00006469  00000+0  61395-3 0  9994
2 65318  97.7381 253.9307 0004505 182.7043 177.4154 14.93858124 45528
CAPELLA-19 (ACADIA-9)   
1 67384U 26004X   26178.56414440  .00004804  00000+0  54703-3 0  9999
2 67384  97.7995 176.7522 0001597  92.4725 267.6674 14.86645916 24810
CAPELLA-18 (ACADIA-8)   
1 67385U 26004Y   26178.70881674  .00004620  00000+0  52633-3 0  9999
2 67385  97.8005 177.0458 0001480  91.0795 269.0591 14.86641219 24848
