{
 "generated_at": "2026-06-28T08:21:54Z",
 "sources": [
  {
   "name": "CelesTrak",
   "url": "https://celestrak.org/NORAD/elements/",
   "license": "frei verfügbar; Attribution. Ursprünglich USSPACECOM/Space-Track."
  },
  {
   "name": "GCAT (J. McDowell, planet4589.org)",
   "url": "https://planet4589.org/space/gcat/",
   "license": "CC-BY 4.0"
  }
 ],
 "satellites": [
  {
   "norad": 28376,
   "name": "AURA",
   "intl": "2004-026A",
   "group": "resource",
   "gcat": {
    "class": "C",
    "category": "EOSCI",
    "owner": "GSFC",
    "state": "US"
   },
   "omm": {
    "OBJECT_NAME": "AURA",
    "OBJECT_ID": "2004-026A",
    "EPOCH": "2026-06-27T22:35:42.872352",
    "MEAN_MOTION": 14.61344375,
    "ECCENTRICITY": 0.00011706,
    "INCLINATION": 98.3421,
    "RA_OF_ASC_NODE": 135.4839,
    "ARG_OF_PERICENTER": 83.8173,
    "MEAN_ANOMALY": 276.3161,
    "EPHEMERIS_TYPE": 0,
    "CLASSIFICATION_TYPE": "U",
    "NORAD_CAT_ID": 28376,
    "ELEMENT_SET_NO": 999,
    "REV_AT_EPOCH": 16778,
    "BSTAR": 0.00015858557,
    "MEAN_MOTION_DOT": 0.00000735,
    "MEAN_MOTION_DDOT": 0
   }
  },
  {
   "norad": 63772,
   "name": "BIOMASS",
   "intl": "2025-090A",
   "group": "resource",
   "gcat": {
    "class": "C",
    "category": "EOSCI",
    "owner": "ESA",
    "state": "I-ESA"
   },
   "omm": {
    "OBJECT_NAME": "BIOMASS",
    "OBJECT_ID": "2025-090A",
    "EPOCH": "2026-06-25T10:04:41.476800",
    "MEAN_MOTION": 14.67536962,
    "ECCENTRICITY": 0.0001429,
    "INCLINATION": 98.0741,
    "RA_OF_ASC_NODE": 3.6181,
    "ARG_OF_PERICENTER": 94.8977,
    "MEAN_ANOMALY": 265.2391,
    "EPHEMERIS_TYPE": 0,
    "CLASSIFICATION_TYPE": "U",
    "NORAD_CAT_ID": 63772,
    "ELEMENT_SET_NO": 999,
    "REV_AT_EPOCH": 6189,
    "BSTAR": 0.00012495,
    "MEAN_MOTION_DOT": 0.00000661,
    "MEAN_MOTION_DDOT": 0
   }
  },
  {
   "norad": 57693,
   "name": "CAPELLA-11 (ACADIA-1)",
   "intl": "2023-126A",
   "group": "sar",
   "gcat": {
    "class": "B",
    "category": "IMG-R",
    "owner": "CAPSP",
    "state": "US"
   },
   "omm": {
    "OBJECT_NAME": "CAPELLA-11 (ACADIA-1)",
    "OBJECT_ID": "2023-126A",
    "EPOCH": "2026-06-27T06:42:25.665408",
    "MEAN_MOTION": 14.84022288,
    "ECCENTRICITY": 0.00021606,
    "INCLINATION": 53.0064,
    "RA_OF_ASC_NODE": 141.107,
    "ARG_OF_PERICENTER": 101.6387,
    "MEAN_ANOMALY": 258.4834,
    "EPHEMERIS_TYPE": 0,
    "CLASSIFICATION_TYPE": "U",
    "NORAD_CAT_ID": 57693,
    "ELEMENT_SET_NO": 999,
    "REV_AT_EPOCH": 15362,
    "BSTAR": 0.00057189913,
    "MEAN_MOTION_DOT": 0.00004581,
    "MEAN_MOTION_DDOT": 0
   }
  },
  {
   "norad": 60419,
   "name": "CAPELLA-13 (ACADIA-3)",
   "intl": "2024-142A",
   "group": "sar",
   "gcat": {
    "class": "B",
    "category": "IMG-R",
    "owner": "CAPSP",
    "state": "US"
   },
   "omm": {
    "OBJECT_NAME": "CAPELLA-13 (ACADIA-3)",
    "OBJECT_ID": "2024-142A",
    "EPOCH": "2026-06-27T21:58:03.152928",
    "MEAN_MOTION": 14.8765206,
    "ECCENTRICITY": 0.00013229,
    "INCLINATION": 53.0076,
    "RA_OF_ASC_NODE": 10.7355,
    "ARG_OF_PERICENTER": 93.1751,
    "MEAN_ANOMALY": 266.938,
    "EPHEMERIS_TYPE": 0,
    "CLASSIFICATION_TYPE": "U",
    "NORAD_CAT_ID": 60419,
    "ELEMENT_SET_NO": 999,
    "REV_AT_EPOCH": 10200,
    "BSTAR": 0.00054574267,
    "MEAN_MOTION_DOT": 0.0000478,
    "MEAN_MOTION_DDOT": 0
   }
  },
  {
   "norad": 59444,
   "name": "CAPELLA-14 (ACADIA-4)",
   "intl": "2024-066C",
   "group": "sar",
   "gcat": {
    "class": "B",
    "category": "IMG-R",
    "owner": "CAPSP",
    "state": "US"
   },
   "omm": {
    "OBJECT_NAME": "CAPELLA-14 (ACADIA-4)",
    "OBJECT_ID": "2024-066C",
    "EPOCH": "2026-06-27T23:01:38.858592",
    "MEAN_MOTION": 15.09930877,
    "ECCENTRICITY": 0.00022557,
    "INCLINATION": 45.5983,
    "RA_OF_ASC_NODE": 198.3586,
    "ARG_OF_PERICENTER": 156.9957,
    "MEAN_ANOMALY": 203.103,
    "EPHEMERIS_TYPE": 0,
    "CLASSIFICATION_TYPE": "U",
    "NORAD_CAT_ID": 59444,
    "ELEMENT_SET_NO": 999,
    "REV_AT_EPOCH": 11411,
    "BSTAR": 0.00082610636,
    "MEAN_MOTION_DOT": 0.0001338,
    "MEAN_MOTION_DDOT": 0
   }
  },
  {
   "norad": 60544,
   "name": "CAPELLA-15 (ACADIA-5)",
   "intl": "2024-149CE",
   "group": "sar",
   "gcat": {
    "class": "B",
    "category": "IMG-R",
    "owner": "CAPSP",
    "state": "US"
   },
   "omm": {
    "OBJECT_NAME": "CAPELLA-15 (ACADIA-5)",
    "OBJECT_ID": "2024-149CE",
    "EPOCH": "2026-06-27T21:59:08.178432",
    "MEAN_MOTION": 14.92388037,
    "ECCENTRICITY": 0.0004191,
    "INCLINATION": 97.6774,
    "RA_OF_ASC_NODE": 251.5511,
    "ARG_OF_PERICENTER": 45.4,
    "MEAN_ANOMALY": 314.756,
    "EPHEMERIS_TYPE": 0,
    "CLASSIFICATION_TYPE": "U",
    "NORAD_CAT_ID": 60544,
    "ELEMENT_SET_NO": 999,
    "REV_AT_EPOCH": 10145,
    "BSTAR": 0.0003435331,
    "MEAN_MOTION_DOT": 0.00003462,
    "MEAN_MOTION_DDOT": 0
   }
  },
  {
   "norad": 65318,
   "name": "CAPELLA-16 (ACADIA-6)",
   "intl": "2025-188D",
   "group": "sar",
   "gcat": {
    "class": "B",
    "category": "IMG-R",
    "owner": "CAPSP",
    "state": "US"
   },
   "omm": {
    "OBJECT_NAME": "CAPELLA-16 (ACADIA-6)",
    "OBJECT_ID": "2025-188D",
    "EPOCH": "2026-06-27T22:35:04.693920",
    "MEAN_MOTION": 14.93858124,
    "ECCENTRICITY": 0.00045059,
    "INCLINATION": 97.7381,
    "RA_OF_ASC_NODE": 253.9307,
    "ARG_OF_PERICENTER": 182.7043,
    "MEAN_ANOMALY": 177.4154,
    "EPHEMERIS_TYPE": 0,
    "CLASSIFICATION_TYPE": "U",
    "NORAD_CAT_ID": 65318,
    "ELEMENT_SET_NO": 999,
    "REV_AT_EPOCH": 4552,
    "BSTAR": 0.00061394832,
    "MEAN_MOTION_DOT": 0.00006469,
    "MEAN_MOTION_DDOT": 0
   }
  },
  {
   "norad": 64583,
   "name": "CAPELLA-17 (ACADIA-7)",
   "intl": "2025-135BH",
   "group": "sar",
   "gcat": {
    "class": "B",
    "category": "IMG-R",
    "owner": "CAPSP",
    "state": "US"
   },
   "omm": {
    "OBJECT_NAME": "CAPELLA-17 (ACADIA-7)",
    "OBJECT_ID": "2025-135BH",
    "EPOCH": "2026-06-27T20:54:43.918560",
    "MEAN_MOTION": 14.91435995,
    "ECCENTRICITY": 0.00040262,
    "INCLINATION": 97.7698,
    "RA_OF_ASC_NODE": 292.3351,
    "ARG_OF_PERICENTER": 329.0341,
    "MEAN_ANOMALY": 31.0639,
    "EPHEMERIS_TYPE": 0,
    "CLASSIFICATION_TYPE": "U",
    "NORAD_CAT_ID": 64583,
    "ELEMENT_SET_NO": 999,
    "REV_AT_EPOCH": 5544,
    "BSTAR": 0.00075588902,
    "MEAN_MOTION_DOT": 0.00007504,
    "MEAN_MOTION_DDOT": 0
   }
  },
  {
   "norad": 67385,
   "name": "CAPELLA-18 (ACADIA-8)",
   "intl": "2026-004Y",
   "group": "sar",
   "gcat": {
    "class": "B",
    "category": "IMG-R",
    "owner": "CAPSP",
    "state": "US"
   },
   "omm": {
    "OBJECT_NAME": "CAPELLA-18 (ACADIA-8)",
    "OBJECT_ID": "2026-004Y",
    "EPOCH": "2026-06-27T17:00:41.766336",
    "MEAN_MOTION": 14.86641219,
    "ECCENTRICITY": 0.00014805,
    "INCLINATION": 97.8005,
    "RA_OF_ASC_NODE": 177.0458,
    "ARG_OF_PERICENTER": 91.0795,
    "MEAN_ANOMALY": 269.0591,
    "EPHEMERIS_TYPE": 0,
    "CLASSIFICATION_TYPE": "U",
    "NORAD_CAT_ID": 67385,
    "ELEMENT_SET_NO": 999,
    "REV_AT_EPOCH": 2484,
    "BSTAR": 0.00052633086,
    "MEAN_MOTION_DOT": 0.0000462,
    "MEAN_MOTION_DDOT": 0
   }
  },
  {
   "norad": 67384,
   "name": "CAPELLA-19 (ACADIA-9)",
   "intl": "2026-004X",
   "group": "sar",
   "gcat": {
    "class": "B",
    "category": "IMG-R",
    "owner": "CAPSP",
    "state": "US"
   },
   "omm": {
    "OBJECT_NAME": "CAPELLA-19 (ACADIA-9)",
    "OBJECT_ID": "2026-004X",
    "EPOCH": "2026-06-27T13:32:22.076160",
    "MEAN_MOTION": 14.86645916,
    "ECCENTRICITY": 0.00015976,
    "INCLINATION": 97.7995,
    "RA_OF_ASC_NODE": 176.7522,
    "ARG_OF_PERICENTER": 92.4725,
    "MEAN_ANOMALY": 267.6674,
    "EPHEMERIS_TYPE": 0,
    "CLASSIFICATION_TYPE": "U",
    "NORAD_CAT_ID": 67384,
    "ELEMENT_SET_NO": 999,
    "REV_AT_EPOCH": 2481,
    "BSTAR": 0.00054702729,
    "MEAN_MOTION_DOT": 0.00004804,
    "MEAN_MOTION_DDOT": 0
   }
  }
 ]
}
